2026-028A               
1 67756U 26028A   26053.27474921 -.00000223  00000+0  00000+0 0  9997
2 67756   0.5067 288.6547 0042021 230.1886 201.3119  0.99527641   109
KUIPER-00159            
1 67764U 26030A   26053.91668981  .00005762  00000+0  17793-3 0  9994
2 67764  51.8850 290.3705 0003979  13.5018 316.2127 15.35022024  2199
KUIPER-00160            
1 67765U 26030B   26053.91668981  .00005830  00000+0  18028-3 0  9993
2 67765  51.8815 290.3729 0004279  22.5306 304.0708 15.34956121  1306
KUIPER-00177            
1 67766U 26030C   26053.91668981  .00004258  00000+0  13120-3 0  9995
2 67766  51.8840 290.3046 0000760  81.0983 280.0660 15.35795208  2724
KUIPER-00178            
1 67767U 26030D   26053.91668981  .00006113  00000+0  18930-3 0  9992
2 67767  51.8838 290.3862 0005453   9.5739 311.8845 15.34815938  2096
KUIPER-00180            
1 67768U 26030E   26053.91668981  .00015993  00000+0  50694-3 0  9992
2 67768  51.8808 290.5228 0015031  24.2336 228.0580 15.32766995  1306
KUIPER-00197            
1 67769U 26030F   26053.91668981  .00004278  00000+0  13224-3 0  9995
2 67769  51.8840 290.3195 0001581  73.9184 279.9508 15.35680576  1309
KUIPER-00198            
1 67770U 26030G   26053.91668981  .00004779  00000+0  14808-3 0  9992
2 67770  51.8816 290.3452 0002598  24.9262 315.4266 15.35328293  1304
KUIPER-00199            
1 67771U 26030H   26053.91668981  .00004485  00000+0  14667-3 0  9990
2 67771  51.8811 290.4632 0010232  17.7598 264.0675 15.33725086  2737
KUIPER-00200            
1 67772U 26030J   26053.91668981  .00002842  00000+0  89814-4 0  9993
2 67772  51.8820 290.2730 0002435 153.7178 222.2986 15.36294389  2625
KUIPER-00203            
1 67773U 26030K   26053.91668981  .00004601  00000+0  15145-3 0  9994
2 67773  51.8801 290.4819 0012361  19.4717 252.0686 15.33434726  1389
KUIPER-00205            
1 67774U 26030L   26053.91668981  .00004674  00000+0  14357-3 0  9999
2 67774  51.8817 290.3246 0001679 354.5486 355.8636 15.35659570  2001
KUIPER-00208            
1 67775U 26030M   26053.91668981  .00005461  00000+0  18099-3 0  9992
2 67775  51.8833 290.5246 0014676  18.5711 235.6353 15.32794157  2561
KUIPER-00209            
1 67776U 26030N   26053.91668981  .00012550  00000+0  40107-3 0  9995
2 67776  51.8828 290.5120 0012628  19.8803 239.6210 15.32752401  2212
KUIPER-00213            
1 67777U 26030P   26053.91668981  .00006409  00000+0  21018-3 0  9992
2 67777  51.8809 290.5088 0014501  20.1174 238.9727 15.32819434  2724
KUIPER-00214            
1 67778U 26030Q   26053.91668981  .00003076  00000+0  96936-4 0  9992
2 67778  51.8851 290.2871 0001987 145.1496 224.8173 15.36082223  2639
KUIPER-00215            
1 67779U 26030R   26053.91668981  .00004959  00000+0  16032-3 0  9992
2 67779  51.8842 290.4571 0010046  16.6918 270.7576 15.33852600  1307
KUIPER-00218            
1 67780U 26030S   26053.91668981  .00007012  00000+0  21722-3 0  9999
2 67780  51.8837 290.4049 0006241  15.2029 297.0565 15.34557000  1591
KUIPER-00220            
1 67781U 26030T   26053.91668981  .00004096  00000+0  13355-3 0  9992
2 67781  51.8813 290.4348 0007959  14.7724 281.1842 15.34076467  2340
KUIPER-00222            
1 67782U 26030U   26053.91668981  .00007284  00000+0  24032-3 0  9999
2 67782  51.8806 290.5370 0016843  19.4269 225.5009 15.32370952  2674
KUIPER-00223            
1 67783U 26030V   26053.91668981  .00004834  00000+0  15783-3 0  9991
2 67783  51.8828 290.4754 0012076  16.4055 261.0680 15.33577214  2499
KUIPER-00225            
1 67784U 26030W   26053.91668981  .00005726  00000+0  17592-3 0  9993
2 67784  51.8816 290.3534 0003377   8.3324 327.9216 15.35200964  1746
KUIPER-00226            
1 67785U 26030X   26053.91668981  .00003270  00000+0  11695-3 0  9994
2 67785  51.8809 290.5894 0019946  27.2445 192.3102 15.31638395  1302
KUIPER-00259            
1 67786U 26030Y   26053.91668981  .00007217  00000+0  22434-3 0  9993
2 67786  51.8813 290.4137 0007753   9.0090 297.3300 15.34392023  2781
KUIPER-00260            
1 67787U 26030Z   26053.91668981  .00005511  00000+0  16686-3 0  9991
2 67787  51.8807 290.3088 0001223  87.9448 269.9518 15.35740625  2644
KUIPER-00262            
1 67788U 26030AA  26053.91668981  .00004045  00000+0  12425-3 0  9990
2 67788  51.8819 290.2939 0001782 120.4682 245.3150 15.36037758  1304
KUIPER-00266            
1 67789U 26030AB  26053.91668981  .00003325  00000+0  11934-3 0  9995
2 67789  51.8806 290.6118 0022031  28.9423 178.6258 15.31430692  1574
KUIPER-00268            
1 67790U 26030AC  26053.91668981  .00005303  00000+0  16281-3 0  9995
2 67790  51.8851 290.3395 0001749  28.0964 316.6330 15.35380429  1306
KUIPER-00270            
1 67791U 26030AD  26053.91668981  .00005217  00000+0  16740-3 0  9990
2 67791  51.8811 290.4420 0009830  13.2724 278.9173 15.33984211  1539
KUIPER-00274            
1 67792U 26030AE  26053.91668981  .00013500  00000+0  43560-3 0  9995
2 67792  51.8823 290.5559 0017445  24.2721 213.6819 15.32308299  1805
