OBJECT_NAME,OBJECT_ID,EPOCH,MEAN_MOTION,ECCENTRICITY,INCLINATION,RA_OF_ASC_NODE,ARG_OF_PERICENTER,MEAN_ANOMALY,EPHEMERIS_TYPE,CLASSIFICATION_TYPE,NORAD_CAT_ID,ELEMENT_SET_NO,REV_AT_EPOCH,BSTAR,MEAN_MOTION_DOT,MEAN_MOTION_DDOT
2026-028A,2026-028A,2026-02-22T06:35:38.331744,0.99527641,.00420217,0.5067,288.6547,230.1886,201.3119,0,U,67756,999,10,0,-.223E-5,0
KUIPER-00159,2026-030A,2026-02-22T22:00:01.999584,15.35022024,.00039793,51.8850,290.3705,13.5018,316.2127,0,U,67764,999,219,.17793463E-3,.5762E-4,0
KUIPER-00160,2026-030B,2026-02-22T22:00:01.999584,15.34956121,.00042798,51.8815,290.3729,22.5306,304.0708,0,U,67765,999,130,.18028399E-3,.583E-4,0
KUIPER-00177,2026-030C,2026-02-22T22:00:01.999584,15.35795208,.00007609,51.8840,290.3046,81.0983,280.0660,0,U,67766,999,272,.13119729E-3,.4258E-4,0
KUIPER-00178,2026-030D,2026-02-22T22:00:01.999584,15.34815938,.00054531,51.8838,290.3862,9.5739,311.8845,0,U,67767,999,209,.18930241E-3,.6113E-4,0
KUIPER-00180,2026-030E,2026-02-22T22:00:01.999584,15.32766995,.00150318,51.8808,290.5228,24.2336,228.0580,0,U,67768,999,130,.50693626E-3,.15993E-3,0
KUIPER-00197,2026-030F,2026-02-22T22:00:01.999584,15.35680576,.00015816,51.8840,290.3195,73.9184,279.9508,0,U,67769,999,130,.13224235E-3,.4278E-4,0
KUIPER-00198,2026-030G,2026-02-22T22:00:01.999584,15.35328293,.00025983,51.8816,290.3452,24.9262,315.4266,0,U,67770,999,130,.14807887E-3,.4779E-4,0
KUIPER-00199,2026-030H,2026-02-22T22:00:01.999584,15.33725086,.00102329,51.8811,290.4632,17.7598,264.0675,0,U,67771,999,273,.14666554E-3,.4485E-4,0
KUIPER-00200,2026-030J,2026-02-22T22:00:01.999584,15.36294389,.00024357,51.8820,290.2730,153.7178,222.2986,0,U,67772,999,262,.89813932E-4,.2842E-4,0
KUIPER-00203,2026-030K,2026-02-22T22:00:01.999584,15.33434726,.00123617,51.8801,290.4819,19.4717,252.0686,0,U,67773,999,138,.15144874E-3,.4601E-4,0
KUIPER-00205,2026-030L,2026-02-22T22:00:01.999584,15.35659570,.00016793,51.8817,290.3246,354.5486,355.8636,0,U,67774,999,200,.14356759E-3,.4674E-4,0
KUIPER-00208,2026-030M,2026-02-22T22:00:01.999584,15.32794157,.0014676,51.8833,290.5246,18.5711,235.6353,0,U,67775,999,256,.18098664E-3,.5461E-4,0
KUIPER-00209,2026-030N,2026-02-22T22:00:01.999584,15.32752401,.00126289,51.8828,290.5120,19.8803,239.6210,0,U,67776,999,221,.40107083E-3,.1255E-3,0
KUIPER-00213,2026-030P,2026-02-22T22:00:01.999584,15.32819434,.00145014,51.8809,290.5088,20.1174,238.9727,0,U,67777,999,272,.21018245E-3,.6409E-4,0
KUIPER-00214,2026-030Q,2026-02-22T22:00:01.999584,15.36082223,.00019879,51.8851,290.2871,145.1496,224.8173,0,U,67778,999,263,.96936174E-4,.3076E-4,0
KUIPER-00215,2026-030R,2026-02-22T22:00:01.999584,15.33852600,.00100463,51.8842,290.4571,16.6918,270.7576,0,U,67779,999,130,.16032057E-3,.4959E-4,0
KUIPER-00218,2026-030S,2026-02-22T22:00:01.999584,15.34557000,.00062413,51.8837,290.4049,15.2029,297.0565,0,U,67780,999,159,.21721521E-3,.7012E-4,0
KUIPER-00220,2026-030T,2026-02-22T22:00:01.999584,15.34076467,.00079595,51.8813,290.4348,14.7724,281.1842,0,U,67781,999,234,.13354948E-3,.4096E-4,0
KUIPER-00222,2026-030U,2026-02-22T22:00:01.999584,15.32370952,.00168433,51.8806,290.5370,19.4269,225.5009,0,U,67782,999,267,.24031924E-3,.7284E-4,0
KUIPER-00223,2026-030V,2026-02-22T22:00:01.999584,15.33577214,.00120764,51.8828,290.4754,16.4055,261.0680,0,U,67783,999,249,.15783256E-3,.4834E-4,0
KUIPER-00225,2026-030W,2026-02-22T22:00:01.999584,15.35200964,.00033776,51.8816,290.3534,8.3324,327.9216,0,U,67784,999,174,.1759206E-3,.5726E-4,0
KUIPER-00226,2026-030X,2026-02-22T22:00:01.999584,15.31638395,.00199464,51.8809,290.5894,27.2445,192.3102,0,U,67785,999,130,.11694501E-3,.327E-4,0
KUIPER-00259,2026-030Y,2026-02-22T22:00:01.999584,15.34392023,.00077535,51.8813,290.4137,9.0090,297.3300,0,U,67786,999,278,.22434163E-3,.7217E-4,0
KUIPER-00260,2026-030Z,2026-02-22T22:00:01.999584,15.35740625,.0001223,51.8807,290.3088,87.9448,269.9518,0,U,67787,999,264,.16685606E-3,.5511E-4,0
KUIPER-00262,2026-030AA,2026-02-22T22:00:01.999584,15.36037758,.00017828,51.8819,290.2939,120.4682,245.3150,0,U,67788,999,130,.12425425E-3,.4045E-4,0
KUIPER-00266,2026-030AB,2026-02-22T22:00:01.999584,15.31430692,.00220315,51.8806,290.6118,28.9423,178.6258,0,U,67789,999,157,.11934003E-3,.3325E-4,0
KUIPER-00268,2026-030AC,2026-02-22T22:00:01.999584,15.35380429,.00017497,51.8851,290.3395,28.0964,316.6330,0,U,67790,999,130,.16280711E-3,.5303E-4,0
KUIPER-00270,2026-030AD,2026-02-22T22:00:01.999584,15.33984211,.00098303,51.8811,290.4420,13.2724,278.9173,0,U,67791,999,153,.16740384E-3,.5217E-4,0
KUIPER-00274,2026-030AE,2026-02-22T22:00:01.999584,15.32308299,.00174453,51.8823,290.5559,24.2721,213.6819,0,U,67792,999,180,.43559794E-3,.135E-3,0
